#dP2020  2 10  0  0  0.00000000      96 __u+U ITR00 FIT  IAC
## 2092  86400.00000000   900.00000000 58889 0.0000000000000
+  106   C06C07C08C09C10C11C12C13C14C16C19C20C21C22C23C24C25
+        C26C27C28C29C30C32C33C34C35C36C37E01E02E03E04E05E07
+        E08E09E11E12E13E14E15E18E19E21E24E25E26E27E30E31E33
+        E36G01G02G03G04G05G06G07G08G09G10G11G12G13G14G15G16
+        G17G18G19G20G21G22G23G24G25G26G27G28G29G30G31G32R01
+        R02R03R04R05R07R08R09R11R12R13R14R15R16R17R18R19R20
+        R21R22R23R26  0  0  0  0  0  0  0  0  0  0  0  0  0
++         8  9  9  8  8  8  7  8  8  8  8  8  7  8  8  8  8
++         8  8  8  8  8  8  8  8  8  8  8  4  4  5  4  4  4
++         4  4  4  4  5  5  4  4  4  4  4  4  4  4  4  4  4
++         4  3  3  3  4  4  3  3  4  4  3  3  4  3  4  3  3
++         3  4  3  4  4  3  4  3  4  4  4  3  4  3  4  3  6
++         8  5  8  5  6  6  5  5  5  8  6  6  6  5  5  6  8
++         0  6  6  8  0  0  0  0  0  0  0  0  0  0  0  0  0
%c M  cc GPS ccc cccc cccc cccc cccc ccccc ccccc ccccc ccccc
%c cc cc ccc ccc cccc cccc cccc cccc ccccc ccccc ccccc ccccc
%f  0.0000000  0.000000000  0.00000000000  0.000000000000000
%f  0.0000000  0.000000000  0.00000000000  0.000000000000000
%i    0    0    0    0      0      0      0      0         0
%i    0    0    0    0      0      0      0      0         0
/* INFORMATION & ANALYSIS CENTER (IAC)      ULTRA-RAPID DATA
/* S/V CLOCKS ARE ALIGNED TO GNSS TIME                      
/* G:C1WC2W R:C1PC2P E:C1XC5X C:C2IC6I J:C1CC2S             
/* PCV:IGS14_2091 OL/AL:FES2004  NONE     YN ORB:CoN CLK:CoN
*  2020 02 10 11 15  0.00000000
PC06  -5687.696976  29167.447924 -29377.441382    247.667096
PC07 -20188.901337  24936.638938  27302.339204    -61.372337
PC08 -18684.015603  37918.872479   2467.080834   -112.716025
PC09   4730.915934  35888.800814 -21072.550161    323.988422
PC10  -5867.226859  26653.513654  32238.155516   -646.418865
PC11  10891.577912 -13477.981945 -21796.205402   -173.622661
PC12  16807.624575   7406.529566 -20975.297408    317.657702
PC13  -9624.575057  39810.510755 -10462.712644    258.420297
PC14  20433.145947  -8027.790876  17286.392465    144.891035
PC16  -3352.395349  30335.075800 -28987.053034   -788.749607
PC19 -11604.035040  13018.603363 -21759.569512    321.913703
PC20 -25670.995335   2188.407143 -10674.892315   -688.754573
PC21  24927.059201  10347.462940  -7114.371554    -61.873733
PC22   9493.512344  16520.627660 -20394.225068   -826.515008
PC23    431.760904 -20370.022167 -19067.185384   -887.886871
PC24  22348.211726 -10841.718171  12679.019165   -922.288941
PC25  15398.302531 -22738.496712  -4903.351631   -511.104655
PC26  15911.792410   5723.521451  22187.045219    566.202379
PC27 -16130.800046 -16860.919161  15311.406850    276.002434
PC28  -7177.806414 -26933.773660  -1276.151934    266.939143
PC29  -5138.263205  21476.363017  17059.006225    185.817176
PC30 -15622.049758   3344.211085  22885.628835    269.810911
PC32 -24978.652196 -10188.587625   7144.007610   -867.954468
PC33  11641.334642 -13081.885133  21736.437587   -889.233146
PC34  15517.991818  -3812.148272 -22876.137218   -459.340576
PC35   7977.359407  26683.724663   1424.143695   -860.503917
PC36 -16059.366415  22333.879835   4719.029314   -832.072864
PC37 -15392.101985  -6611.771710 -22306.234146 999999.999999
PE01   6548.087795  15017.076455  24650.955592   -791.884064
PE02  -6659.890460 -14971.274447 -24654.288298    111.757898
PE03 -15527.197698 -22166.379131  11970.309808   -264.719788
PE04  25560.515995  13584.316874   6189.311005   -463.021688
PE05   3718.856927 -17852.071819  23314.158651   -406.611756
PE07 -20660.129392   3136.501304 -20959.064367   -339.008419
PE08 -25654.824773 -13294.789230  -6397.274766   6222.347522
PE09  20531.817908  -3230.948185  21082.084718   6160.793234
PE11  15672.275772 -13040.782489 -21461.476498   1196.134160
PE12  14675.268773   9986.831157 -23671.143203   5958.341718
PE13 -15608.564726  12822.348907  21647.837096    398.221950
PE14  -7264.564875  14616.394890  17154.576521   -900.083194
PE15 -14716.347138  -9702.477782  23795.595617    877.777782
PE18  14000.729404 -15732.525644 -24614.934901   -997.354087
PE19  13810.856138  22272.411578 -13758.058766     -1.600129
PE21 -14419.732354  18958.287813  17573.868281   -581.897061
PE24  27205.850892 -11625.415641    -78.331827   5617.532196
PE25  14510.685846 -18946.847241 -17503.829057   -503.558500
PE26  -7415.098050  27916.851603   6486.778086   3545.797210
PE27 -27149.283175  11809.710841    123.032423    285.334184
PE30 -23804.223484  -2533.132314 -17432.610546   4154.726077
PE31  23882.050341   2254.699784  17342.240573   -471.659596
PE33   5170.580701  26567.092204 -11959.879741   -470.446003
PE36   7329.197706 -27868.367571  -6769.228387    600.120087
PG01 -14382.903401  20868.558843   7145.452411   -290.427145
PG02  15770.855134   -931.835705 -20698.654949   -402.182969
PG03 -16855.691468  13030.958906 -15855.947136    -91.301215
PG04  -7319.285912  14875.938762 -20739.692662    -46.844377
PG05  26453.279867  -1765.248617  -2998.705602     -7.384950
PG06  10318.315685  12149.583865 -21183.875504   -204.899536
PG07  -3662.314406  24463.417921   9278.141752   -211.362842
PG08 -15011.743590   4629.202646  21479.899095    -23.259452
PG09   2515.132420  21399.949873 -15577.257118   -152.402110
PG10 -13209.782835 -12162.768032  19723.875490   -240.229231
PG11 -12666.196002  15140.348969  17403.858162   -365.223599
PG12  20070.603711 -10392.933689 -14037.709827    152.812798
PG13  17733.549319   4558.731060  19145.544600    -13.856284
PG14 -18232.482813 -16981.124263  -9128.827059    -33.359722
PG15  14749.105683  -6879.223498  20730.561248   -252.560507
PG16 -26636.785778  -1221.895302  -2981.306831   -122.948385
PG17  14277.839117  22427.210298    743.042743    213.640588
PG18 -16093.974705  15368.362643  13926.872388      1.838616
PG19  17356.362032  18555.031446  -8023.037187   -200.622403
PG20  -1672.315685 -15773.694240  21202.758390    527.857366
PG21    283.432055 -24576.002958  11164.600762    -43.114162
PG22 -22671.731431  10826.773973  -8210.858849   -784.293181
PG23  -6099.508104  15769.119819 -20038.570682   -137.305975
PG24  14439.245501 -19984.448452   9191.981821     -8.842287
PG25   7739.556408 -15158.796241 -20546.824434    -13.640856
PG26 -23311.740469  -5141.617085 -11903.579591    145.440653
PG27 -19393.339221  -7032.753629  16793.847139   -206.962303
PG28  13235.796235  12862.903950  19638.919736    740.105987
PG29   -508.234003 -20859.283541 -16455.509896    -29.518245
PG30   4912.904035  19393.621004  17400.883157   -149.806983
PG31      0.000000      0.000000      0.000000 999999.999999
PG32 -16185.477308 -21154.953578   -158.976008    208.597427
PR01  23410.126748  10060.297846  -1345.116367     56.873769
PR02  18178.725381  -1426.301931  17846.250934    411.190333
PR03   2100.394782 -10978.552801  22969.011383      9.772148
PR04 -15091.710784 -14003.596377  15085.715575     38.282371
PR05 -23725.083009  -9296.242881  -1402.133955     44.748343
PR07  -1589.120380  11135.364526 -22858.819883    -33.040865
PR08  15044.884096  14078.378898 -14977.751405    -50.435765
PR09 -20401.729566  15245.492523   -534.222676    116.059061
PR11   3803.712904  10947.043013  22729.936012    -13.000353
PR12  16918.536850  -1556.359665  19037.192724    104.478812
PR13  20985.662640 -13948.777352   3928.065382    -34.614988
PR14  12772.889707 -17661.406668 -13249.367895     47.980756
PR15  -2809.787054 -11359.219991 -22648.382735    105.886774
PR16 -17313.083627   2184.396121 -18686.064205     -1.419355
PR17   2134.521182 -23012.035110 -10743.364202    299.791659
PR18  -5689.854604 -24119.223762   6193.922582     24.614827
PR19 -10054.235554 -12809.244732  19641.542671    -78.383692
PR20  -9211.699135   8312.932432  22292.921090   -403.744349
PR21  -1736.200434  23420.620073   9992.720469   -103.988592
PR22   6641.164693  22889.509336  -8904.388969    -13.412400
PR23  10787.864232   6015.433322 -22317.458706    285.470851
PR26  -9985.613868   4092.612884  23130.743135   -407.587155
EOF
